BEIDOU-2 IGSO-1 (C06)   
1 36828U 10036A   26129.56207134 -.00000068  00000+0  00000+0 0  9998
2 36828  54.2946 163.3091 0058712 224.6236 148.8612  1.00281802 57712
BEIDOU-2 G4 (C04)       
1 37210U 10057A   26129.54865509 -.00000102  00000+0  00000+0 0  9990
2 37210   3.5512  69.1574 0005575 213.4887 302.2042  1.00273291 56906
BEIDOU-2 IGSO-2 (C07)   
1 37256U 10068A   26126.82717209 -.00000199  00000+0  00000+0 0  9999
2 37256  47.6271 272.3432 0052277 211.0703 144.6242  1.00297293 56379
BEIDOU-2 IGSO-3 (C08)   
1 37384U 11013A   26127.41762512 -.00000185  00000+0  00000+0 0  9990
2 37384  62.3544  40.5383 0033842 187.1430 256.1700  1.00278193 55257
BEIDOU-2 IGSO-4 (C09)   
1 37763U 11038A   26127.08566644  .00000028  00000+0  00000+0 0  9994
2 37763  54.5895 166.0525 0159176 231.8688 309.0637  1.00254387 54236
BEIDOU-2 IGSO-5 (C10)   
1 37948U 11073A   26128.86969726 -.00000159  00000+0  00000+0 0  9999
2 37948  47.7531 272.0313 0111459 220.7494 139.9104  1.00257961 52743
BEIDOU-2 G5 (C05)       
1 38091U 12008A   26129.49855497  .00000068  00000+0  00000+0 0  9995
2 38091   3.4774  69.9129 0011357 272.0236 123.5393  1.00271022 51987
BEIDOU-2 M3 (C11)       
1 38250U 12018A   26128.45381045 -.00000038  00000+0  00000+0 0  9999
2 38250  55.7928 306.2139 0019668 277.1817  82.5892  1.86230179 95200
BEIDOU-2 M4 (C12)       
1 38251U 12018B   26128.92300840 -.00000036  00000+0  00000+0 0  9994
2 38251  55.6931 305.4151 0010884 282.3733  77.4996  1.86229854 95212
BEIDOU-2 M6 (C14)       
1 38775U 12050B   26129.16983613 -.00000020  00000+0  00000+0 0  9996
2 38775  56.5118  64.1842 0014378 350.7322   9.2308  1.86230974 92584
BEIDOU-2 G6 (C02)       
1 38953U 12059A   26129.41604278 -.00000166  00000+0  00000+0 0  9999
2 38953   4.3235  73.9225 0010810 319.6812  67.4713  1.00273264 49528
BEIDOU-3S IGSO-1S (C31) 
1 40549U 15019A   26129.41829611 -.00000160  00000+0  00000+0 0  9996
2 40549  49.2705 295.9267 0037597 190.3668 345.8582  1.00259147 40687
BEIDOU-3S M2S (C58)     
1 40748U 15037A   26128.58906300 -.00000037  00000+0  00000+0 0  9998
2 40748  54.9079 303.4092 0007455 268.2126  91.6939  1.86232348 73383
BEIDOU-3S M1S (C57)     
1 40749U 15037B   26129.33819546 -.00000036  00000+0  00000+0 0  9997
2 40749  54.9031 303.3710 0004155  55.4941 304.5384  1.86255031 73400
BEIDOU-3S IGSO-2S (C56) 
1 40938U 15053A   26128.83844315 -.00000148  00000+0  00000+0 0  9995
2 40938  49.2857 259.2498 0063889 191.0081 174.8755  1.00269008 38963
BEIDOU-2 IGSO-6 (C13)   
1 41434U 16021A   26128.80427500 -.00000155  00000+0  00000+0 0  9991
2 41434  60.1731  38.4330 0057590 232.4747 340.0349  1.00266779 37081
BEIDOU-2 G7 (C03)       
1 41586U 16037A   26129.56921927 -.00000344  00000+0  00000+0 0  9992
2 41586   1.6244  68.9409 0007706 356.9811 116.9730  1.00272472  6505
BEIDOU-3 M1 (C19)       
1 43001U 17069A   26128.93521896 -.00000019  00000+0  00000+0 0  9992
2 43001  56.6594  64.3771 0011792 319.3638  40.5376  1.86231526 57872
BEIDOU-3 M2 (C20)       
1 43002U 17069B   26128.33767399 -.00000020  00000+0  00000+0 0  9999
2 43002  56.6766  64.4251 0022120  73.1957 287.0348  1.86210859 57855
BEIDOU-3 M7 (C27)       
1 43107U 18003A   26129.15243528 -.00000038  00000+0  00000+0 0  9997
2 43107  54.3640 303.6756 0005265  84.0120 276.0413  1.86228387 56629
BEIDOU-3 M8 (C28)       
1 43108U 18003B   26128.56086074 -.00000039  00000+0  00000+0 0  9994
2 43108  54.3576 303.6780 0002137 281.3024  78.6657  1.86231291 56629
BEIDOU-3 M4 (C22)       
1 43207U 18018A   26127.92958346 -.00000022  00000+0  00000+0 0  9991
2 43207  56.6178  64.4755 0007742   4.8904 355.1044  1.86231531 55997
BEIDOU-3 M3 (C21)       
1 43208U 18018B   26129.06995149 -.00000019  00000+0  00000+0 0  9997
2 43208  56.6178  64.4424 0009730 331.7782  28.1584  1.86231351 56016
BEIDOU-3 M9 (C29)       
1 43245U 18029A   26128.75062547 -.00000037  00000+0  00000+0 0  9992
2 43245  54.2314 301.3274 0000821  93.5762 266.4233  1.86228510 55168
BEIDOU-3 M10 (C30)      
1 43246U 18029B   26129.22214498 -.00000037  00000+0  00000+0 0  9990
2 43246  54.2281 301.3374 0004700  36.2915 323.7313  1.86229463 55150
BEIDOU-2 IGSO-7 (C16)   
1 43539U 18057A   26128.53901286 -.00000029  00000+0  00000+0 0  9998
2 43539  55.1875 163.4048 0103898 237.7189 131.6026  1.00263483 28735
BEIDOU-3 M5 (C23)       
1 43581U 18062A   26128.37243906  .00000037  00000+0  00000+0 0  9999
2 43581  54.0835 183.6581 0004699 288.6287  71.3975  1.86228855 52890
BEIDOU-3 M6 (C24)       
1 43582U 18062B   26129.30962619  .00000044  00000+0  00000+0 0  9991
2 43582  54.0831 183.6153 0004808  18.9796 341.1148  1.86227992 52917
BEIDOU-3 M12 (C26)      
1 43602U 18067A   26129.24802271  .00000046  00000+0  00000+0 0  9991
2 43602  54.1783 182.3610 0007840  32.7480 327.3771  1.86227965 52394
BEIDOU-3 M11 (C25)      
1 43603U 18067B   26129.38297212  .00000047  00000+0  00000+0 0  9991
2 43603  54.1758 182.3202 0004460  18.1352 341.9572  1.86227404 52428
BEIDOU-3 M13 (C32)      
1 43622U 18072A   26128.26413194 -.00000022  00000+0  00000+0 0  9997
2 43622  56.5916  63.9763 0008552 319.8985  40.0271  1.86231481 51912
BEIDOU-3 M14 (C33)      
1 43623U 18072B   26129.20348764 -.00000020  00000+0  00000+0 0  9991
2 43623  56.5941  63.9398 0006695 345.6638  14.3071  1.86231536 51927
BEIDOU-3 M16 (C35)      
1 43647U 18078A   26128.82247648 -.00000037  00000+0  00000+0 0  9997
2 43647  54.1272 301.3654 0007972  39.2456 320.8026  1.86232403 51425
BEIDOU-3 M15 (C34)      
1 43648U 18078B   26128.95177469 -.00000037  00000+0  00000+0 0  9995
2 43648  54.1224 301.3614 0005076  51.5027 308.5335  1.86232655 51440
BEIDOU-3 G1 (C59)       
1 43683U 18085A   26129.54865456 -.00000098  00000+0  00000+0 0  9995
2 43683   2.9762  98.3941 0007647 337.6882 148.7732  1.00273314 27672
BEIDOU-3 M17 (C36)      
1 43706U 18093A   26129.24918965  .00000044  00000+0  00000+0 0  9991
2 43706  54.1671 183.6178 0009134 291.2507 160.2904  1.86228609 50811
BEIDOU-3 M18 (C37)      
1 43707U 18093B   26127.36477020  .00000032  00000+0  00000+0 0  9992
2 43707  54.1680 183.6737 0007248 323.3441  36.6857  1.86226701 50781
BEIDOU-3 IGSO-1 (C38)   
1 44204U 19023A   26128.76049988 -.00000215  00000+0  00000+0 0  9996
2 44204  58.6418  38.0582 0024055 234.4286 343.5157  1.00252154  6812
BEIDOU-2 G8 (C01)       
1 44231U 19027A   26129.48418167 -.00000237  00000+0  00000+0 0  9993
2 44231   1.5598  74.4083 0011092 281.9668 189.7345  1.00274910 25696
BEIDOU-3 IGSO-2 (C39)   
1 44337U 19035A   26129.51664542 -.00000073  00000+0  00000+0 0  9991
2 44337  55.2384 159.2020 0039521 215.2739 158.7000  1.00279427 25288
BEIDOU-3 M24 (C46)      
1 44542U 19061A   26129.04479801  .00000042  00000+0  00000+0 0  9993
2 44542  54.3946 184.0482 0008103   3.6991 356.3835  1.86229217 45065
BEIDOU-3 M23 (C45)      
1 44543U 19061B   26129.25158262  .00000044  00000+0  00000+0 0  9994
2 44543  54.3931 184.0098 0005129 344.8604  65.7036  1.86227742 45075
BEIDOU-3 IGSO-3 (C40)   
1 44709U 19073A   26120.85038409 -.00000212  00000+0  00000+0 0  9996
2 44709  54.8842 281.4069 0042404 188.8195 170.9972  1.00251230 23982
BEIDOU-3 M22 (C44)      
1 44793U 19078A   26129.42102106 -.00000037  00000+0  00000+0 0  9997
2 44793  53.9723 301.1911 0007198  47.1122 312.9393  1.86227546 43925
BEIDOU-3 M21 (C43)      
1 44794U 19078B   26129.56104247 -.00000037  00000+0  00000+0 0  9991
2 44794  53.9454 301.1483 0004996  44.9088 315.1228  1.86228037 43939
BEIDOU-3 M19 (C41)      
1 44864U 19090A   26128.45489995 -.00000021  00000+0  00000+0 0  9999
2 44864  56.5258  64.1039 0019341 296.1478 239.2902  1.86231845 43492
BEIDOU-3 M20 (C42)      
1 44865U 19090B   26129.38368757 -.00000020  00000+0  00000+0 0  9994
2 44865  56.5282  64.1078 0017025 308.8996 218.8417  1.86231698 43496
BEIDOU-3 G2 (C60)       
1 45344U 20017A   26129.48654082 -.00000131  00000+0  00000+0 0  9991
2 45344   2.7865  46.7268 0002951   6.3107  69.4551  1.00271111 22870
BEIDOU-3 G3 (C61)       
1 45807U 20040A   26129.56921946 -.00000344  00000+0  00000+0 0  9992
2 45807   2.3524  67.3307 0003547 332.3398 143.1014  1.00277863 21683
BEIDOU-3 G4 (C62)       
1 56564U 23066A   26129.55618578 -.00000274  00000+0  00000+0 0  9990
2 56564   0.5384 322.3803 0003533 159.1924  86.0513  1.00267919 11004
BEIDOU-3 M28 (C50)      
1 58654U 23207A   26129.10128095 -.00000022  00000+0  00000+0 0  9991
2 58654  55.7199  63.6215 0004320 328.5843  31.3799  1.86229784 16119
BEIDOU-3 M26 (C48)      
1 58655U 23207B   26128.89877583 -.00000023  00000+0  00000+0 0  9991
2 58655  55.7218  63.6147 0004584 308.3454  51.6033  1.86229772 16092
BEIDOU-3 M25 (C47)      
1 61186U 24168B   26128.72217630 -.00000038  00000+0  00000+0 0  9990
2 61186  54.5099 303.6138 0003219 315.5987  43.1750  1.86230280 11049
BEIDOU-3 M27 (C49)      
1 61187U 24168C   26129.05472400 -.00000038  00000+0  00000+0 0  9996
2 61187  54.5049 303.5853 0002347  41.6147 315.1318  1.86230358  8521
